{"fetched_at":"2026-07-06T18:35:14.557Z","source":"https://celestrak.org/NORAD/elements/gp.php?GROUP=oneweb&FORMAT=JSON","constellation":"oneweb","records":[{"OBJECT_NAME":"ONEWEB-0320","OBJECT_ID":"2021-083E","EPOCH":"2026-07-05T21:41:17.517408","CLASSIFICATION_TYPE":"U","MEAN_MOTION":13.18686789,"ECCENTRICITY":0.00018841,"INCLINATION":87.9177,"RA_OF_ASC_NODE":331.7381,"ARG_OF_PERICENTER":97.8549,"MEAN_ANOMALY":262.2797,"EPHEMERIS_TYPE":0,"NORAD_CAT_ID":49190,"ELEMENT_SET_NO":999,"REV_AT_EPOCH":23244,"BSTAR":0.00010860714,"MEAN_MOTION_DOT":5.6e-7,"MEAN_MOTION_DDOT":0},{"OBJECT_NAME":"ONEWEB-0321","OBJECT_ID":"2021-083F","EPOCH":"2026-07-06T07:00:06.367104","CLASSIFICATION_TYPE":"U","MEAN_MOTION":13.20774085,"ECCENTRICITY":0.00021565,"INCLINATION":87.9192,"RA_OF_ASC_NODE":270.6281,"ARG_OF_PERICENTER":106.6531,"MEAN_ANOMALY":253.4839,"EPHEMERIS_TYPE":0,"NORAD_CAT_ID":49191,"ELEMENT_SET_NO":999,"REV_AT_EPOCH":23935,"BSTAR":0.000003367374,"MEAN_MOTION_DOT":1.4e-7,"MEAN_MOTION_DDOT":0},{"OBJECT_NAME":"ONEWEB-0322","OBJECT_ID":"2021-083G","EPOCH":"2026-07-05T19:39:14.580864","CLASSIFICATION_TYPE":"U","MEAN_MOTION":13.13469442,"ECCENTRICITY":0.00018005,"INCLINATION":87.8972,"RA_OF_ASC_NODE":316.5267,"ARG_OF_PERICENTER":112.9764,"MEAN_ANOMALY":247.1555,"EPHEMERIS_TYPE":0,"NORAD_CAT_ID":49192,"ELEMENT_SET_NO":999,"REV_AT_EPOCH":23336,"BSTAR":0.00070975412,"MEAN_MOTION_DOT":0.00000272,"MEAN_MOTION_DDOT":0},{"OBJECT_NAME":"ONEWEB-0324","OBJECT_ID":"2021-083H","EPOCH":"2026-07-05T22:51:43.354368","CLASSIFICATION_TYPE":"U","MEAN_MOTION":13.18686074,"ECCENTRICITY":0.00020679,"INCLINATION":87.919,"RA_OF_ASC_NODE":331.7177,"ARG_OF_PERICENTER":96.1669,"MEAN_ANOMALY":263.9699,"EPHEMERIS_TYPE":0,"NORAD_CAT_ID":49193,"ELEMENT_SET_NO":999,"REV_AT_EPOCH":23247,"BSTAR":0.000035040873,"MEAN_MOTION_DOT":2.7e-7,"MEAN_MOTION_DDOT":0},{"OBJECT_NAME":"ONEWEB-0325","OBJECT_ID":"2021-083J","EPOCH":"2026-07-05T22:56:34.301184","CLASSIFICATION_TYPE":"U","MEAN_MOTION":13.18686585,"ECCENTRICITY":0.00017895,"INCLINATION":87.918,"RA_OF_ASC_NODE":331.7233,"ARG_OF_PERICENTER":96.6514,"MEAN_ANOMALY":263.4822,"EPHEMERIS_TYPE":0,"NORAD_CAT_ID":49194,"ELEMENT_SET_NO":999,"REV_AT_EPOCH":23248,"BSTAR":0.00013784851,"MEAN_MOTION_DOT":6.7e-7,"MEAN_MOTION_DDOT":0},{"OBJECT_NAME":"ONEWEB-0326","OBJECT_ID":"2021-083K","EPOCH":"2026-07-05T21:29:22.715520","CLASSIFICATION_TYPE":"U","MEAN_MOTION":13.18685921,"ECCENTRICITY":0.00017606,"INCLINATION":87.9188,"RA_OF_ASC_NODE":331.7351,"ARG_OF_PERICENTER":88.293,"MEAN_ANOMALY":271.8404,"EPHEMERIS_TYPE":0,"NORAD_CAT_ID":49195,"ELEMENT_SET_NO":999,"REV_AT_EPOCH":23246,"BSTAR":0.000091466665,"MEAN_MOTION_DOT":4.9e-7,"MEAN_MOTION_DDOT":0},{"OBJECT_NAME":"ONEWEB-0327","OBJECT_ID":"2021-083L","EPOCH":"2026-07-05T21:28:58.466496","CLASSIFICATION_TYPE":"U","MEAN_MOTION":13.1868583,"ECCENTRICITY":0.00015807,"INCLINATION":87.9179,"RA_OF_ASC_NODE":331.7378,"ARG_OF_PERICENTER":86.6898,"MEAN_ANOMALY":273.4415,"EPHEMERIS_TYPE":0,"NORAD_CAT_ID":49196,"ELEMENT_SET_NO":999,"REV_AT_EPOCH":23248,"BSTAR":0.00012674491,"MEAN_MOTION_DOT":6.3e-7,"MEAN_MOTION_DDOT":0},{"OBJECT_NAME":"ONEWEB-0328","OBJECT_ID":"2021-083M","EPOCH":"2026-07-05T21:14:18.428928","CLASSIFICATION_TYPE":"U","MEAN_MOTION":13.13469295,"ECCENTRICITY":0.0002041,"INCLINATION":87.898,"RA_OF_ASC_NODE":316.4883,"ARG_OF_PERICENTER":98.0212,"MEAN_ANOMALY":262.1149,"EPHEMERIS_TYPE":0,"NORAD_CAT_ID":49197,"ELEMENT_SET_NO":999,"REV_AT_EPOCH":23335,"BSTAR":0.0010845667,"MEAN_MOTION_DOT":0.00000409,"MEAN_MOTION_DDOT":0},{"OBJECT_NAME":"ONEWEB-0331","OBJECT_ID":"2021-083N","EPOCH":"2026-07-05T23:08:41.504064","CLASSIFICATION_TYPE":"U","MEAN_MOTION":13.18684599,"ECCENTRICITY":0.00018452,"INCLINATION":87.9189,"RA_OF_ASC_NODE":331.7152,"ARG_OF_PERICENTER":85.3711,"MEAN_ANOMALY":274.7632,"EPHEMERIS_TYPE":0,"NORAD_CAT_ID":49198,"ELEMENT_SET_NO":999,"REV_AT_EPOCH":23248,"BSTAR":0.00019499227,"MEAN_MOTION_DOT":9e-7,"MEAN_MOTION_DDOT":0},{"OBJECT_NAME":"ONEWEB-0333","OBJECT_ID":"2021-083P","EPOCH":"2026-07-05T21:06:59.463360","CLASSIFICATION_TYPE":"U","MEAN_MOTION":13.13470143,"ECCENTRICITY":0.00018274,"INCLINATION":87.8971,"RA_OF_ASC_NODE":316.5138,"ARG_OF_PERICENTER":98.607,"MEAN_ANOMALY":261.5266,"EPHEMERIS_TYPE":0,"NORAD_CAT_ID":49199,"ELEMENT_SET_NO":999,"REV_AT_EPOCH":23336,"BSTAR":0.00089425072,"MEAN_MOTION_DOT":0.00000339,"MEAN_MOTION_DDOT":0},{"OBJECT_NAME":"ONEWEB-0334","OBJECT_ID":"2021-083Q","EPOCH":"2026-07-06T05:31:36.339744","CLASSIFICATION_TYPE":"U","MEAN_MOTION":13.207743,"ECCENTRICITY":0.00021163,"INCLINATION":87.9193,"RA_OF_ASC_NODE":270.6503,"ARG_OF_PERICENTER":122.297,"MEAN_ANOMALY":237.8368,"EPHEMERIS_TYPE":0,"NORAD_CAT_ID":49200,"ELEMENT_SET_NO":999,"REV_AT_EPOCH":23930,"BSTAR":0.000032884207,"MEAN_MOTION_DOT":2.6e-7,"MEAN_MOTION_DDOT":0},{"OBJECT_NAME":"ONEWEB-0335","OBJECT_ID":"2021-083R","EPOCH":"2026-07-05T19:09:57.530592","CLASSIFICATION_TYPE":"U","MEAN_MOTION":13.13471971,"ECCENTRICITY":0.00019017,"INCLINATION":87.8969,"RA_OF_ASC_NODE":316.5273,"ARG_OF_PERICENTER":93.5647,"MEAN_ANOMALY":266.57,"EPHEMERIS_TYPE":0,"NORAD_CAT_ID":49201,"ELEMENT_SET_NO":999,"REV_AT_EPOCH":23336,"BSTAR":0.00050579697,"MEAN_MOTION_DOT":0.00000197,"MEAN_MOTION_DDOT":0},{"OBJECT_NAME":"ONEWEB-0336","OBJECT_ID":"2021-083S","EPOCH":"2026-07-05T20:18:13.011552","CLASSIFICATION_TYPE":"U","MEAN_MOTION":13.13478217,"ECCENTRICITY":0.00019847,"INCLINATION":87.8971,"RA_OF_ASC_NODE":316.5135,"ARG_OF_PERICENTER":89.669,"MEAN_ANOMALY":270.4667,"EPHEMERIS_TYPE":0,"NORAD_CAT_ID":49202,"ELEMENT_SET_NO":999,"REV_AT_EPOCH":23336,"BSTAR":0.0018647522,"MEAN_MOTION_DOT":0.00000694,"MEAN_MOTION_DDOT":0},{"OBJECT_NAME":"ONEWEB-0337","OBJECT_ID":"2021-083T","EPOCH":"2026-07-05T20:32:39.665760","CLASSIFICATION_TYPE":"U","MEAN_MOTION":13.13469108,"ECCENTRICITY":0.0002083,"INCLINATION":87.8967,"RA_OF_ASC_NODE":316.517,"ARG_OF_PERICENTER":95.7981,"MEAN_ANOMALY":264.3386,"EPHEMERIS_TYPE":0,"NORAD_CAT_ID":49203,"ELEMENT_SET_NO":999,"REV_AT_EPOCH":23336,"BSTAR":-0.0007364951,"MEAN_MOTION_DOT":-0.00000256,"MEAN_MOTION_DDOT":0},{"OBJECT_NAME":"ONEWEB-0338","OBJECT_ID":"2021-083U","EPOCH":"2026-07-06T06:47:58.642368","CLASSIFICATION_TYPE":"U","MEAN_MOTION":13.20770585,"ECCENTRICITY":0.00019631,"INCLINATION":87.9184,"RA_OF_ASC_NODE":270.642,"ARG_OF_PERICENTER":108.6103,"MEAN_ANOMALY":251.5244,"EPHEMERIS_TYPE":0,"NORAD_CAT_ID":49204,"ELEMENT_SET_NO":999,"REV_AT_EPOCH":23933,"BSTAR":0.00025061473,"MEAN_MOTION_DOT":0.00000115,"MEAN_MOTION_DDOT":0},{"OBJECT_NAME":"ONEWEB-0339","OBJECT_ID":"2021-083V","EPOCH":"2026-07-05T20:45:02.342016","CLASSIFICATION_TYPE":"U","MEAN_MOTION":13.13469341,"ECCENTRICITY":0.00019853,"INCLINATION":87.8971,"RA_OF_ASC_NODE":316.5081,"ARG_OF_PERICENTER":107.7241,"MEAN_ANOMALY":252.4105,"EPHEMERIS_TYPE":0,"NORAD_CAT_ID":49205,"ELEMENT_SET_NO":999,"REV_AT_EPOCH":23334,"BSTAR":-0.00019280979,"MEAN_MOTION_DOT":-5.8e-7,"MEAN_MOTION_DDOT":0}]}
