[
  {
    "name": "ONEWEB-0320",
    "noradId": "49190",
    "line1": "1 49190U 21083E   26186.90367497  .00000056  00000+0  10861-3 0  9994",
    "line2": "2 49190  87.9177 331.7381 0001884  97.8549 262.2797 13.18686789232440"
  },
  {
    "name": "ONEWEB-0321",
    "noradId": "49191",
    "line1": "1 49191U 21083F   26187.29174036  .00000014  00000+0  33674-5 0  9996",
    "line2": "2 49191  87.9192 270.6281 0002156 106.6531 253.4839 13.20774085239357"
  },
  {
    "name": "ONEWEB-0322",
    "noradId": "49192",
    "line1": "1 49192U 21083G   26186.81891876  .00000272  00000+0  70975-3 0  9991",
    "line2": "2 49192  87.8972 316.5267 0001800 112.9764 247.1555 13.13469442233360"
  },
  {
    "name": "ONEWEB-0324",
    "noradId": "49193",
    "line1": "1 49193U 21083H   26186.95258512  .00000027  00000+0  35041-4 0  9995",
    "line2": "2 49193  87.9190 331.7177 0002067  96.1669 263.9699 13.18686074232479"
  },
  {
    "name": "ONEWEB-0325",
    "noradId": "49194",
    "line1": "1 49194U 21083J   26186.95595256  .00000067  00000+0  13785-3 0  9999",
    "line2": "2 49194  87.9180 331.7233 0001789  96.6514 263.4822 13.18686585232487"
  },
  {
    "name": "ONEWEB-0326",
    "noradId": "49195",
    "line1": "1 49195U 21083K   26186.89540180  .00000049  00000+0  91467-4 0  9993",
    "line2": "2 49195  87.9188 331.7351 0001760  88.2930 271.8404 13.18685921232465"
  },
  {
    "name": "ONEWEB-0327",
    "noradId": "49196",
    "line1": "1 49196U 21083L   26186.89512114  .00000063  00000+0  12674-3 0  9998",
    "line2": "2 49196  87.9179 331.7378 0001580  86.6898 273.4415 13.18685830232481"
  },
  {
    "name": "ONEWEB-0328",
    "noradId": "49197",
    "line1": "1 49197U 21083M   26186.88493552  .00000409  00000+0  10846-2 0  9994",
    "line2": "2 49197  87.8980 316.4883 0002041  98.0212 262.1149 13.13469295233358"
  },
  {
    "name": "ONEWEB-0331",
    "noradId": "49198",
    "line1": "1 49198U 21083N   26186.96436926  .00000090  00000+0  19499-3 0  9996",
    "line2": "2 49198  87.9189 331.7152 0001845  85.3711 274.7632 13.18684599232484"
  },
  {
    "name": "ONEWEB-0333",
    "noradId": "49199",
    "line1": "1 49199U 21083P   26186.87985490  .00000339  00000+0  89425-3 0  9994",
    "line2": "2 49199  87.8971 316.5138 0001827  98.6070 261.5266 13.13470143233361"
  },
  {
    "name": "ONEWEB-0334",
    "noradId": "49200",
    "line1": "1 49200U 21083Q   26187.23028171  .00000026  00000+0  32884-4 0  9993",
    "line2": "2 49200  87.9193 270.6503 0002116 122.2970 237.8368 13.20774300239301"
  },
  {
    "name": "ONEWEB-0335",
    "noradId": "49201",
    "line1": "1 49201U 21083R   26186.79858253  .00000197  00000+0  50580-3 0  9997",
    "line2": "2 49201  87.8969 316.5273 0001901  93.5647 266.5700 13.13471971233367"
  },
  {
    "name": "ONEWEB-0336",
    "noradId": "49202",
    "line1": "1 49202U 21083S   26186.84598393  .00000694  00000+0  18648-2 0  9990",
    "line2": "2 49202  87.8971 316.5135 0001984  89.6690 270.4667 13.13478217233369"
  },
  {
    "name": "ONEWEB-0337",
    "noradId": "49203",
    "line1": "1 49203U 21083T   26186.85601465 -.00000256  00000+0 -73650-3 0  9998",
    "line2": "2 49203  87.8967 316.5170 0002083  95.7981 264.3386 13.13469108233365"
  },
  {
    "name": "ONEWEB-0338",
    "noradId": "49204",
    "line1": "1 49204U 21083U   26187.28331762  .00000115  00000+0  25061-3 0  9992",
    "line2": "2 49204  87.9184 270.6420 0001963 108.6103 251.5244 13.20770585239338"
  },
  {
    "name": "ONEWEB-0339",
    "noradId": "49205",
    "line1": "1 49205U 21083V   26186.86461044 -.00000058  00000+0 -19281-3 0  9998",
    "line2": "2 49205  87.8971 316.5081 0001985 107.7241 252.4105 13.13469341233340"
  }
]